SKYKRAFT-1A             
1 55054U 23001AX  26068.71064616  .00008177  00000+0  30069-3 0  9991
2 55054  97.3349 127.6290 0011277 121.5092 238.7251 15.28083228176529
STARLINK-32356          
1 60921U 24154U   26068.86781728  .00000447  00000+0  27208-4 0  9990
2 60921  53.1589 282.9086 0001380  99.4780 260.6377 15.30196309 86377
